{
  "links" : {
    "next" : "https://api.nasa.gov/neo/rest/v1/feed?start_date=1998-10-23&end_date=1998-10-23&detailed=true&api_key=t0TVs3DtDT2H8Oy2Zy8m2eVrNsAVKAexjcZXUckd",
    "prev" : "https://api.nasa.gov/neo/rest/v1/feed?start_date=1998-10-21&end_date=1998-10-21&detailed=true&api_key=t0TVs3DtDT2H8Oy2Zy8m2eVrNsAVKAexjcZXUckd",
    "self" : "https://api.nasa.gov/neo/rest/v1/feed?start_date=1998-10-22&end_date=1998-10-22&detailed=true&api_key=t0TVs3DtDT2H8Oy2Zy8m2eVrNsAVKAexjcZXUckd"
  },
  "element_count" : 3,
  "near_earth_objects" : {
    "1998-10-22" : [ {
      "links" : {
        "self" : "https://api.nasa.gov/neo/rest/v1/neo/3752445?api_key=t0TVs3DtDT2H8Oy2Zy8m2eVrNsAVKAexjcZXUckd"
      },
      "neo_reference_id" : "3752445",
      "name" : "(2016 HO3)",
      "nasa_jpl_url" : "http://ssd.jpl.nasa.gov/sbdb.cgi?sstr=3752445",
      "absolute_magnitude_h" : 24.183,
      "estimated_diameter" : {
        "kilometers" : {
          "estimated_diameter_min" : 0.03872175,
          "estimated_diameter_max" : 0.0865844652
        },
        "meters" : {
          "estimated_diameter_min" : 38.7217499927,
          "estimated_diameter_max" : 86.5844651915
        },
        "miles" : {
          "estimated_diameter_min" : 0.0240605725,
          "estimated_diameter_max" : 0.0538010757
        },
        "feet" : {
          "estimated_diameter_min" : 127.0398662462,
          "estimated_diameter_max" : 284.0697767789
        }
      },
      "is_potentially_hazardous_asteroid" : false,
      "close_approach_data" : [ {
        "close_approach_date" : "1998-10-22",
        "epoch_date_close_approach" : 909039600000,
        "relative_velocity" : {
          "kilometers_per_second" : "4.7008043721",
          "kilometers_per_hour" : "16922.8957394856",
          "miles_per_hour" : "10515.2292999043"
        },
        "miss_distance" : {
          "astronomical" : "0.1403841452",
          "lunar" : "54.6094360352",
          "kilometers" : "21001170",
          "miles" : "13049522"
        },
        "orbiting_body" : "Earth"
      } ],
      "orbital_data" : {
        "orbit_id" : "10",
        "orbit_determination_date" : "2016-06-11 06:17:09",
        "orbit_uncertainty" : "0",
        "minimum_orbit_intersection" : ".0345404",
        "jupiter_tisserand_invariant" : "6.062",
        "epoch_osculation" : "2457600.5",
        "eccentricity" : ".1041429093141734",
        "semi_major_axis" : "1.001229934908869",
        "inclination" : "7.771395618758937",
        "ascending_node_longitude" : "66.5132579804841",
        "orbital_period" : "365.9309688008125",
        "perihelion_distance" : ".8969589365950191",
        "perihelion_argument" : "307.2276516410577",
        "aphelion_distance" : "1.105500933222719",
        "perihelion_time" : "2457663.997047229686",
        "mean_anomaly" : "297.532105911676",
        "mean_motion" : ".9837921102435007",
        "equinox" : "J2000"
      }
    }, {
      "links" : {
        "self" : "https://api.nasa.gov/neo/rest/v1/neo/2469219?api_key=t0TVs3DtDT2H8Oy2Zy8m2eVrNsAVKAexjcZXUckd"
      },
      "neo_reference_id" : "2469219",
      "name" : "469219 (2016 HO3)",
      "nasa_jpl_url" : "http://ssd.jpl.nasa.gov/sbdb.cgi?sstr=2469219",
      "absolute_magnitude_h" : 24.2,
      "estimated_diameter" : {
        "kilometers" : {
          "estimated_diameter_min" : 0.0384197891,
          "estimated_diameter_max" : 0.0859092601
        },
        "meters" : {
          "estimated_diameter_min" : 38.4197891064,
          "estimated_diameter_max" : 85.9092601232
        },
        "miles" : {
          "estimated_diameter_min" : 0.0238729428,
          "estimated_diameter_max" : 0.0533815229
        },
        "feet" : {
          "estimated_diameter_min" : 126.0491808919,
          "estimated_diameter_max" : 281.8545369825
        }
      },
      "is_potentially_hazardous_asteroid" : false,
      "close_approach_data" : [ {
        "close_approach_date" : "1998-10-22",
        "epoch_date_close_approach" : 909039600000,
        "relative_velocity" : {
          "kilometers_per_second" : "4.7007985443",
          "kilometers_per_hour" : "16922.874759441",
          "miles_per_hour" : "10515.2162637204"
        },
        "miss_distance" : {
          "astronomical" : "0.1403835667",
          "lunar" : "54.609210968",
          "kilometers" : "21001084",
          "miles" : "13049468"
        },
        "orbiting_body" : "Earth"
      } ],
      "orbital_data" : {
        "orbit_id" : "24",
        "orbit_determination_date" : "2017-08-20 06:19:16",
        "orbit_uncertainty" : "0",
        "minimum_orbit_intersection" : ".034775",
        "jupiter_tisserand_invariant" : "6.061",
        "epoch_osculation" : "2458000.5",
        "eccentricity" : ".1039704505486476",
        "semi_major_axis" : "1.001383453618808",
        "inclination" : "7.77408544694362",
        "ascending_node_longitude" : "66.40657284052057",
        "orbital_period" : "366.015134388046",
        "perihelion_distance" : ".8972691647741002",
        "perihelion_argument" : "306.9337201441289",
        "aphelion_distance" : "1.105497742463517",
        "perihelion_time" : "2458029.487558144501",
        "mean_anomaly" : "331.4888266861752",
        "mean_motion" : ".9835658861535796",
        "equinox" : "J2000"
      }
    }, {
      "links" : {
        "self" : "https://api.nasa.gov/neo/rest/v1/neo/3761271?api_key=t0TVs3DtDT2H8Oy2Zy8m2eVrNsAVKAexjcZXUckd"
      },
      "neo_reference_id" : "3761271",
      "name" : "(2016 US4)",
      "nasa_jpl_url" : "http://ssd.jpl.nasa.gov/sbdb.cgi?sstr=3761271",
      "absolute_magnitude_h" : 24.4,
      "estimated_diameter" : {
        "kilometers" : {
          "estimated_diameter_min" : 0.0350392641,
          "estimated_diameter_max" : 0.0783501764
        },
        "meters" : {
          "estimated_diameter_min" : 35.0392641108,
          "estimated_diameter_max" : 78.3501764334
        },
        "miles" : {
          "estimated_diameter_min" : 0.0217723826,
          "estimated_diameter_max" : 0.0486845275
        },
        "feet" : {
          "estimated_diameter_min" : 114.9582192654,
          "estimated_diameter_max" : 257.0543928497
        }
      },
      "is_potentially_hazardous_asteroid" : false,
      "close_approach_data" : [ {
        "close_approach_date" : "1998-10-22",
        "epoch_date_close_approach" : 909039600000,
        "relative_velocity" : {
          "kilometers_per_second" : "12.4357373434",
          "kilometers_per_hour" : "44768.654436078",
          "miles_per_hour" : "27817.5008633508"
        },
        "miss_distance" : {
          "astronomical" : "0.0629942961",
          "lunar" : "24.5047798157",
          "kilometers" : "9423812",
          "miles" : "5855685.5"
        },
        "orbiting_body" : "Earth"
      } ],
      "orbital_data" : {
        "orbit_id" : "3",
        "orbit_determination_date" : "2017-04-06 08:22:56",
        "orbit_uncertainty" : "6",
        "minimum_orbit_intersection" : ".00908397",
        "jupiter_tisserand_invariant" : "7.176",
        "epoch_osculation" : "2458000.5",
        "eccentricity" : ".3623412818111571",
        "semi_major_axis" : ".8045111682670718",
        "inclination" : "14.95651571067213",
        "ascending_node_longitude" : "206.1288496349375",
        "orbital_period" : "263.5703437193372",
        "perihelion_distance" : ".5130035603257895",
        "perihelion_argument" : "327.946014101613",
        "aphelion_distance" : "1.096018776208354",
        "perihelion_time" : "2458032.740076401390",
        "mean_anomaly" : "315.9645924472466",
        "mean_motion" : "1.3658592803724",
        "equinox" : "J2000"
      }
    } ]
  }
}